start=new Date('2021-08-27T00:00:00.000Z').valueOf();
sats=[{"APOAPSIS":"553.404","EPHEMERIS_TYPE":"0","PERIOD":"95.593","TLE_LINE2":"2 47670  53.0516 286.4887 0008908 155.9238 204.2169 15.06392910 30639","CLASSIFICATION_TYPE":"U","REF_FRAME":"TEME","RCS_SIZE":"LARGE","LAUNCH_DATE":"2021-02-16","SEMIMAJOR_AXIS":"6925.370","TLE_LINE1":"1 47670U 21012BC  21238.51245323 -.00001037  00000-0 -50455-4 0  9997","MEAN_ELEMENT_THEORY":"SGP4","OBJECT_TYPE":"PAYLOAD","DECAY_DATE":null,"MEAN_MOTION_DOT":"-0.00001037","EPOCH":"2021-08-26T12:17:55.959072","ELEMENT_SET_NO":"999","MEAN_MOTION_DDOT":"0.0000000000000","NORAD_CAT_ID":"47670","ECCENTRICITY":"0.00089080","ARG_OF_PERICENTER":"155.9238","SITE":"AFETR","GP_ID":"183473639","MEAN_ANOMALY":"204.2169","FILE":"3103463","PERIAPSIS":"541.066","CENTER_NAME":"EARTH","MEAN_MOTION":"15.06392910","RA_OF_ASC_NODE":"286.4887","REV_AT_EPOCH":"3063","BSTAR":"-0.00005045500000","TIME_SYSTEM":"UTC","OBJECT_ID":"2021-012BC","COUNTRY_CODE":"US","INCLINATION":"53.0516","OBJECT_NAME":"STARLINK-2062"},{"REV_AT_EPOCH":"3064","BSTAR":"0.00005547900000","TIME_SYSTEM":"UTC","OBJECT_ID":"2021-012BD","COUNTRY_CODE":"US","INCLINATION":"53.0549","OBJECT_NAME":"STARLINK-2064","PERIAPSIS":"546.852","CENTER_NAME":"EARTH","MEAN_MOTION":"15.06401601","RA_OF_ASC_NODE":"286.5762","OBJECT_TYPE":"PAYLOAD","DECAY_DATE":null,"MEAN_MOTION_DOT":"0.00000545","EPOCH":"2021-08-26T11:51:22.482144","ELEMENT_SET_NO":"999","MEAN_MOTION_DDOT":"0.0000000000000","NORAD_CAT_ID":"47671","ECCENTRICITY":"0.00005150","ARG_OF_PERICENTER":"96.9160","GP_ID":"183474890","SITE":"AFETR","MEAN_ANOMALY":"263.1888","FILE":"3103463","APOAPSIS":"547.565","EPHEMERIS_TYPE":"0","PERIOD":"95.592","CLASSIFICATION_TYPE":"U","TLE_LINE2":"2 47671  53.0549 286.5762 0000515  96.9160 263.1888 15.06401601 30644","REF_FRAME":"TEME","RCS_SIZE":"LARGE","LAUNCH_DATE":"2021-02-16","SEMIMAJOR_AXIS":"6925.344","MEAN_ELEMENT_THEORY":"SGP4","TLE_LINE1":"1 47671U 21012BD  21238.49401021  .00000545  00000-0  55479-4 0  9996"},{"EPOCH":"2021-08-26T12:56:24.166176","MEAN_MOTION_DOT":"-0.00001005","DECAY_DATE":null,"OBJECT_TYPE":"PAYLOAD","GP_ID":"183474637","MEAN_ANOMALY":"207.5909","SITE":"AFETR","FILE":"3103463","ECCENTRICITY":"0.00002750","ARG_OF_PERICENTER":"152.5094","NORAD_CAT_ID":"47672","ELEMENT_SET_NO":"999","MEAN_MOTION_DDOT":"0.0000000000000","REF_FRAME":"TEME","RCS_SIZE":"LARGE","TLE_LINE2":"2 47672  53.0478 276.3802 0000275 152.5094 207.5909 15.06392948 30768","CLASSIFICATION_TYPE":"U","PERIOD":"95.593","APOAPSIS":"547.426","EPHEMERIS_TYPE":"0","MEAN_ELEMENT_THEORY":"SGP4","TLE_LINE1":"1 47672U 21012BE  21238.53916859 -.00001005  00000-0 -48639-4 0  9996","LAUNCH_DATE":"2021-02-16","SEMIMAJOR_AXIS":"6925.370","OBJECT_ID":"2021-012BE","TIME_SYSTEM":"UTC","REV_AT_EPOCH":"3076","BSTAR":"-0.00004863900000","OBJECT_NAME":"STARLINK-2065","INCLINATION":"53.0478","COUNTRY_CODE":"US","MEAN_MOTION":"15.06392948","PERIAPSIS":"547.045","CENTER_NAME":"EARTH","RA_OF_ASC_NODE":"276.3802"},{"BSTAR":"-0.00010925000000","REV_AT_EPOCH":"3063","OBJECT_ID":"2021-012BF","TIME_SYSTEM":"UTC","COUNTRY_CODE":"US","OBJECT_NAME":"STARLINK-2066","INCLINATION":"53.0550","CENTER_NAME":"EARTH","PERIAPSIS":"546.636","MEAN_MOTION":"15.06390840","RA_OF_ASC_NODE":"286.4604","DECAY_DATE":null,"OBJECT_TYPE":"PAYLOAD","EPOCH":"2021-08-26T12:23:13.216416","MEAN_MOTION_DOT":"-0.00001908","NORAD_CAT_ID":"47673","ELEMENT_SET_NO":"999","MEAN_MOTION_DDOT":"0.0000000000000","FILE":"3103463","GP_ID":"183473389","MEAN_ANOMALY":"258.7844","SITE":"AFETR","ARG_OF_PERICENTER":"101.3243","ECCENTRICITY":"0.00008740","PERIOD":"95.593","EPHEMERIS_TYPE":"0","APOAPSIS":"547.847","RCS_SIZE":"LARGE","REF_FRAME":"TEME","CLASSIFICATION_TYPE":"U","TLE_LINE2":"2 47673  53.0550 286.4604 0000874 101.3243 258.7844 15.06390840 30636","SEMIMAJOR_AXIS":"6925.377","LAUNCH_DATE":"2021-02-16","TLE_LINE1":"1 47673U 21012BF  21238.51612519 -.00001908  00000-0 -10925-3 0  9999","MEAN_ELEMENT_THEORY":"SGP4"},{"MEAN_MOTION":"15.06403241","CENTER_NAME":"EARTH","PERIAPSIS":"546.893","RA_OF_ASC_NODE":"286.3979","TIME_SYSTEM":"UTC","OBJECT_ID":"2021-012BG","BSTAR":"0.00007955500000","REV_AT_EPOCH":"3064","INCLINATION":"53.0520","OBJECT_NAME":"STARLINK-2067","COUNTRY_CODE":"US","TLE_LINE2":"2 47674  53.0520 286.3979 0000449 110.7580 249.3457 15.06403241 30641","CLASSIFICATION_TYPE":"U","RCS_SIZE":"LARGE","REF_FRAME":"TEME","EPHEMERIS_TYPE":"0","APOAPSIS":"547.515","PERIOD":"95.592","MEAN_ELEMENT_THEORY":"SGP4","TLE_LINE1":"1 47674U 21012BG  21238.53086519  .00000904  00000-0  79555-4 0  9995","SEMIMAJOR_AXIS":"6925.339","LAUNCH_DATE":"2021-02-16","MEAN_MOTION_DOT":"0.00000904","EPOCH":"2021-08-26T12:44:26.752416","OBJECT_TYPE":"PAYLOAD","DECAY_DATE":null,"ARG_OF_PERICENTER":"110.7580","ECCENTRICITY":"0.00004490","FILE":"3103480","MEAN_ANOMALY":"249.3457","GP_ID":"183497867","SITE":"AFETR","ELEMENT_SET_NO":"999","MEAN_MOTION_DDOT":"0.0000000000000","NORAD_CAT_ID":"47674"},{"RCS_SIZE":"LARGE","REF_FRAME":"TEME","CLASSIFICATION_TYPE":"U","TLE_LINE2":"2 47675  53.0530 286.4314 0000496 119.9924 240.1114 15.06394349 30649","PERIOD":"95.592","EPHEMERIS_TYPE":"0","APOAPSIS":"547.574","TLE_LINE1":"1 47675U 21012BH  21238.52350886  .00000586  00000-0  58189-4 0  9992","MEAN_ELEMENT_THEORY":"SGP4","SEMIMAJOR_AXIS":"6925.366","LAUNCH_DATE":"2021-02-16","EPOCH":"2021-08-26T12:33:51.165504","MEAN_MOTION_DOT":"0.00000586","DECAY_DATE":null,"OBJECT_TYPE":"PAYLOAD","FILE":"3103480","GP_ID":"183497115","SITE":"AFETR","MEAN_ANOMALY":"240.1114","ARG_OF_PERICENTER":"119.9924","ECCENTRICITY":"0.00004960","NORAD_CAT_ID":"47675","MEAN_MOTION_DDOT":"0.0000000000000","ELEMENT_SET_NO":"999","MEAN_MOTION":"15.06394349","CENTER_NAME":"EARTH","PERIAPSIS":"546.887","RA_OF_ASC_NODE":"286.4314","OBJECT_ID":"2021-012BH","TIME_SYSTEM":"UTC","BSTAR":"0.00005818900000","REV_AT_EPOCH":"3064","OBJECT_NAME":"STARLINK-2078","INCLINATION":"53.0530","COUNTRY_CODE":"US"},{"ARG_OF_PERICENTER":"14.4364","ECCENTRICITY":"0.00047060","FILE":"3103480","MEAN_ANOMALY":"345.6787","GP_ID":"183497365","SITE":"AFETR","MEAN_MOTION_DDOT":"0.0000000000000","ELEMENT_SET_NO":"999","NORAD_CAT_ID":"47676","MEAN_MOTION_DOT":"0.00005309","EPOCH":"2021-08-26T16:16:00.966144","OBJECT_TYPE":"PAYLOAD","DECAY_DATE":null,"MEAN_ELEMENT_THEORY":"SGP4","TLE_LINE1":"1 47676U 21012BJ  21238.67778896  .00005309  00000-0  42194-4 0  9991","SEMIMAJOR_AXIS":"6727.828","LAUNCH_DATE":"2021-02-16","CLASSIFICATION_TYPE":"U","TLE_LINE2":"2 47676  53.0431 229.4649 0004706  14.4364 345.6787 15.73223587 31437","RCS_SIZE":"LARGE","REF_FRAME":"TEME","EPHEMERIS_TYPE":"0","APOAPSIS":"352.859","PERIOD":"91.532","INCLINATION":"53.0431","OBJECT_NAME":"STARLINK-2083","COUNTRY_CODE":"US","TIME_SYSTEM":"UTC","OBJECT_ID":"2021-012BJ","BSTAR":"0.00004219400000","REV_AT_EPOCH":"3143","RA_OF_ASC_NODE":"229.4649","MEAN_MOTION":"15.73223587","CENTER_NAME":"EARTH","PERIAPSIS":"346.527"},{"DECAY_DATE":null,"OBJECT_TYPE":"PAYLOAD","EPOCH":"2021-08-26T12:15:15.910848","MEAN_MOTION_DOT":"-0.00002930","NORAD_CAT_ID":"47677","MEAN_MOTION_DDOT":"0.0000000000000","ELEMENT_SET_NO":"999","FILE":"3103463","SITE":"AFETR","GP_ID":"183473889","MEAN_ANOMALY":"273.5605","ARG_OF_PERICENTER":"86.5470","ECCENTRICITY":"0.00007540","PERIOD":"95.592","EPHEMERIS_TYPE":"0","APOAPSIS":"547.710","RCS_SIZE":"LARGE","REF_FRAME":"TEME","TLE_LINE2":"2 47677  53.0561 306.4908 0000754  86.5470 273.5605 15.06408273 30354","CLASSIFICATION_TYPE":"U","SEMIMAJOR_AXIS":"6925.323","LAUNCH_DATE":"2021-02-16","TLE_LINE1":"1 47677U 21012BK  21238.51060082 -.00002930  00000-0 -17784-3 0  9991","MEAN_ELEMENT_THEORY":"SGP4","BSTAR":"-0.00017784000000","REV_AT_EPOCH":"3035","OBJECT_ID":"2021-012BK","TIME_SYSTEM":"UTC","COUNTRY_CODE":"US","OBJECT_NAME":"STARLINK-2090","INCLINATION":"53.0561","CENTER_NAME":"EARTH","PERIAPSIS":"546.666","MEAN_MOTION":"15.06408273","RA_OF_ASC_NODE":"306.4908"},{"DECAY_DATE":null,"OBJECT_TYPE":"PAYLOAD","EPOCH":"2021-08-26T16:16:20.354304","MEAN_MOTION_DOT":"0.00023798","NORAD_CAT_ID":"47678","ELEMENT_SET_NO":"999","MEAN_MOTION_DDOT":"0.0000000000000","GP_ID":"183498367","SITE":"AFETR","MEAN_ANOMALY":"345.0541","FILE":"3103480","ECCENTRICITY":"0.00050940","ARG_OF_PERICENTER":"15.0628","PERIOD":"91.530","APOAPSIS":"353.036","EPHEMERIS_TYPE":"0","REF_FRAME":"TEME","RCS_SIZE":"LARGE","CLASSIFICATION_TYPE":"U","TLE_LINE2":"2 47678  53.0428 229.4661 0005094  15.0628 345.0541 15.73253045 31456","LAUNCH_DATE":"2021-02-16","SEMIMAJOR_AXIS":"6727.744","MEAN_ELEMENT_THEORY":"SGP4","TLE_LINE1":"1 47678U 21012BL  21238.67801336  .00023798  00000-0  17300-3 0  9991","REV_AT_EPOCH":"3145","BSTAR":"0.00017300000000","OBJECT_ID":"2021-012BL","TIME_SYSTEM":"UTC","COUNTRY_CODE":"US","OBJECT_NAME":"STARLINK-2091","INCLINATION":"53.0428","PERIAPSIS":"346.182","CENTER_NAME":"EARTH","MEAN_MOTION":"15.73253045","RA_OF_ASC_NODE":"229.4661"},{"MEAN_MOTION":"15.06396097","PERIAPSIS":"546.525","CENTER_NAME":"EARTH","RA_OF_ASC_NODE":"306.3748","TIME_SYSTEM":"UTC","OBJECT_ID":"2021-012BM","REV_AT_EPOCH":"3037","BSTAR":"0.00008367800000","INCLINATION":"53.0555","OBJECT_NAME":"STARLINK-2095","COUNTRY_CODE":"US","TLE_LINE2":"2 47679  53.0555 306.3748 0001011  92.4722 267.6383 15.06396097 30372","CLASSIFICATION_TYPE":"U","REF_FRAME":"TEME","RCS_SIZE":"LARGE","APOAPSIS":"547.926","EPHEMERIS_TYPE":"0","PERIOD":"95.592","TLE_LINE1":"1 47679U 21012BM  21238.53914645  .00000965  00000-0  83678-4 0  9998","MEAN_ELEMENT_THEORY":"SGP4","LAUNCH_DATE":"2021-02-16","SEMIMAJOR_AXIS":"6925.361","MEAN_MOTION_DOT":"0.00000965","EPOCH":"2021-08-26T12:56:22.253280","OBJECT_TYPE":"PAYLOAD","DECAY_DATE":null,"ECCENTRICITY":"0.00010110","ARG_OF_PERICENTER":"92.4722","GP_ID":"183496616","MEAN_ANOMALY":"267.6383","SITE":"AFETR","FILE":"3103480","MEAN_MOTION_DDOT":"0.0000000000000","ELEMENT_SET_NO":"999","NORAD_CAT_ID":"47679"}];
